GOES-16
1 41866U 16071A   25150.06595896 -.00000098  00000-0  00000+0 0  9998
2 41866   0.0419 259.9507 0001317 231.3671  39.4169  1.00124545 31258
FENGYUN-4A
1 41882U 16077A   25149.96771865 -.00000362  00000-0  00000+0 0  9995
2 41882   1.3467  84.4148 0007688 170.2005 105.0625  1.00276829 31131
FOX-1B (AO-91)
1 43017U 17073E   25150.15197193  .00008299  00000-0  42819-3 0  9997
2 43017  97.5252  21.1913 0172421 201.5394 157.8519 15.04537151407644
CANX-2
1 32790U 08021H   25149.90800770  .00004105  00000-0  32063-3 0  9991
2 32790  97.8231 119.5749 0010458 239.4923 120.5269 15.01648205927217
AIST-2 (RS-43)
1 39133U 13015D   25150.21608447  .00006551  00000-0  30199-3 0  9996
2 39133  64.8722  64.1217 0030650 281.1520  78.6162 15.20695556666006
NANOSATC-BR1
1 40024U 14033Q   25148.93966101  .00015285  00000-0  75291-3 0  9994
2 40024  98.0899 146.0594 0006716  80.6085 279.5906 15.18053753595444
QB50P1
1 40025U 14033R   25149.41255429  .00008239  00000-0  50608-3 0  9999
2 40025  98.0828 131.3864 0012465  92.8105 267.4550 15.10305283594956
QB50P2
1 40032U 14033Y   25149.89573053  .00007542  00000-0  49142-3 0  9992
2 40032  98.0433 120.8697 0009981  46.2189 313.9862 15.08190840594767
PERSEUS-M2
1 40037U 14033AD  25150.18698780  .00002125  00000-0  20620-3 0  9998
2 40037  97.9555  89.6177 0013563 124.3602 235.8903 14.93693601594077
PERSEUS-M1
1 40039U 14033AF  25149.77114866  .00002306  00000-0  22340-3 0  9993
2 40039  97.9294  84.1875 0013303 124.4125 235.8353 14.93674168593364
POLYITAN-1
1 40042U 14033AJ  25149.95608813  .00015535  00000-0  75863-3 0  9993
2 40042  98.1029 139.5070 0011308  46.0707 314.1456 15.18315801595177
TIGRISAT
1 40043U 14033AK  25149.40076285  .00002001  00000-0  24815-3 0  9991
2 40043  97.7343 305.0421 0050142 252.0682 107.5062 14.82896966589000
UKUBE-1
1 40074U 14037F   25149.86462060  .00008599  00000-0  60617-3 0  9997
2 40074  98.3930 111.2373 0002894  54.8029 305.3466 15.05270374590733
DEORBITSAIL
1 40719U 15032E   25150.10163943  .00008827  00000-0  77654-3 0  9999
2 40719  97.6440   9.9317 0013198  67.6975 292.5645 14.96678911533819
HORYU-IV
1 41340U 16012D   25150.14996865  .00025685  00000-0  69558-3 0  9995
2 41340  30.9950 202.0582 0006225 304.1581  55.8474 15.36430724511180
D-SAT
1 42794U 17036AF  25150.16934001  .00010168  00000-0  56544-3 0  9993
2 42794  97.5142 128.2611 0095038  44.4808 316.4001 15.10010782432953
CORVUS-BC2
1 42846U 17042X   25150.19010246  .00003009  00000-0  22831-3 0  9995
2 42846  97.3730 323.2810 0013656 349.2569  10.8363 15.02869660429473
CORVUS-BC1
1 42847U 17042Y   25150.04319241  .00003746  00000-0  28152-3 0  9997
2 42847  97.3742 323.6639 0012201 320.9655  39.0690 15.03099203429472
APRIZESAT-5 
1 37792U 11044E   25150.20584711  .00001048  00000-0  14291-3 0  9992
2 37792  98.2320  68.2340 0053869 153.9621 206.4317 14.79933865742264
APRIZESAT-6
1 37793U 11044F   25150.20314066  .00000802  00000-0  12272-3 0  9991
2 37793  98.2619  47.6598 0042692 229.3374 282.3517 14.76061259740783
APRIZESAT-7
1 39416U 13066A   25149.84548845  .00001692  00000-0  17846-3 0  9993
2 39416  97.7203 105.2850 0038049  43.5150 316.9059 14.90089354624116
APRIZESAT-8
1 39425U 13066K   25149.79973103  .00001257  00000-0  14554-3 0  9996
2 39425  97.7757  99.1583 0048530 106.5288 254.1267 14.86431733622694
BUGSAT-1 (TITA)
1 40014U 14033E   25150.14560683  .00005636  00000-0  33992-3 0  9995
2 40014  98.0738 216.1543 0031959  46.4984 313.8892 15.10766671597926
SAUDISAT-4
1 40016U 14033G   25149.89138453  .00000754  00000-0  10806-3 0  9998
2 40016  97.7064 305.7724 0044244 239.9512 119.7308 14.78717916589410
TABLETSAT-AURORA
1 40017U 14033H   25150.19292987  .00007630  00000-0  45565-3 0  9997
2 40017  98.0731 197.3538 0014748  83.3924 276.8983 15.11330658597255
APRIZESAT-9
1 40018U 14033J   25149.96361046  .00000563  00000-0  91520-4 0  9995
2 40018  97.8528 289.0114 0066820 353.7357   6.3009 14.73459395587248
APRIZESAT-10
1 40019U 14033K   25149.91205233  .00000597  00000-0  10241-3 0  9993
2 40019  97.9157 281.7836 0080894  58.4193 302.4878 14.70218133586100
AISAT
1 40054U 14034B   25150.16113195  .00010824  00000-0  87874-3 0  9997
2 40054  98.2947  31.8543 0011853  59.3452 300.8936 14.99776061589634
COSMOS-2407 [+]
1 28380U 04028A   25150.09938510  .00000057  00000-0  43284-4 0  9990
2 28380  82.9611 358.5280 0037954 243.0209 235.3849 13.76290583 47378
COSMOS-2414 [+]
1 28521U 05002A   25150.00519070  .00000068  00000-0  43825-4 0  9990
2 28521  82.9489 333.4566 0039710 344.0775  15.9137 13.87874064 30995
COSMOS-2463 [+]
1 36519U 10017A   25150.15211605  .00000032  00000-0  18205-4 0  9992
2 36519  82.9599 171.1508 0037563 112.1667 316.3446 13.71627862755512
NOAA-15
1 25338U 98030A   25150.15351871  .00000251  00000-0  12083-3 0  9990
2 25338  98.5354 175.5357 0010899  36.2201 323.9716 14.26973450406913
NOAA-18
1 28654U 05018A   25150.21735900  .00000241  00000-0  15113-3 0  9990
2 28654  98.8423 229.8100 0014807 155.0623 205.1268 14.13605506 32285
NOAA-19
1 33591U 09005A   25150.15134808  .00000205  00000-0  13341-3 0  9990
2 33591  98.9976 214.7971 0014284  37.5237 322.6929 14.13368806840632
SARAL
1 39086U 13009A   25150.20448836  .00000114  00000-0  58040-4 0  9994
2 39086  98.5537 336.6846 0001962  17.2141 342.9109 14.32702706640768
LAPAN-A3
1 41603U 16040E   25150.16586725  .00003826  00000-0  13498-3 0  9995
2 41603  97.1368 155.1832 0009448 313.9013  46.1448 15.29786484496190
BIROS
1 41604U 16040F   25149.51827036  .00034755  00000-0  40698-3 0  9993
2 41604  97.0863 178.4061 0005116 188.1334 171.9843 15.61456816497778
METOP-A
1 29499U 06044A   25150.23962883  .00002761  00000-0  33302-3 0  9991
2 29499  98.3302 240.7088 0178855 208.3297 176.4944 14.73955394971859
METEOR M1
1 35865U 09049A   25149.95975719  .00000104  00000-0  65458-4 0  9999
2 35865  98.6849 111.4536 0002197   9.3128 350.8090 14.23019791814887
METOP-B
1 38771U 12049A   25150.19093004  .00000151  00000-0  88507-4 0  9990
2 38771  98.5775 204.7000 0001760  71.5762 288.5607 14.21499418658844
METEOR M2
1 40069U 14037A   25150.20147204  .00000133  00000-0  80087-4 0  9991
2 40069  98.4674 135.5710 0006954  73.0730 287.1209 14.21294684564910
CSSWE
1 38761U 12048D   25148.75778042  .00015653  00000-0  53697-3 0  9993
2 38761  64.6645 294.1711 0114572 277.7280  81.0850 15.24222014 57452
MCUBED-2
1 39469U 13072H   25149.73416100  .00009196  00000-0  46849-3 0  9996
2 39469 120.4972 325.0332 0170168 324.1254  34.8489 15.06021816 59831
IPEX
1 39471U 13072K   25149.65135607  .00006585  00000-0  39557-3 0  9997
2 39471 120.4706 290.6964 0182667 314.8086  43.8256 14.99509770 57542
FOX-1A (AO-85)
1 40967U 15058D   25149.91317383  .00002826  00000-0  25612-3 0  9998
2 40967  64.7769  27.4211 0162596 198.9359 160.5663 14.87945107 56483
OOREOS
1 37224U 10062C   25149.22958540  .00002334  00000-0  23933-3 0  9998
2 37224  71.9715 228.4845 0012933  76.3238 283.9370 14.91409691 59358
STARS (KUKAI)
1 33498U 09002G   25149.78795123  .00004343  00000-0  43665-3 0  9992
2 33498  98.1247  78.6154 0009200   4.0844 356.0447 14.91754945881243
YUBELEINY-2 (RS-40)
1 38735U 12041C   25150.19418118  .00000018  00000-0  55647-4 0  9990
2 38735  82.4747 313.5000 0017579 180.0662 180.0418 12.42632132582366
AIST-1
1 39492U 13078C   25150.18366085  .00002428  00000-0  22211-3 0  9993
2 39492  82.4159 281.4244 0018718 118.4328 241.8782 14.94465518620349
VELOX-1
1 40057U 14034E   25150.19038669  .00005571  00000-0  54087-3 0  9998
2 40057  98.2940  29.1588 0009611  91.3009 268.9310 14.93034560589367
DX1
1 40071U 14037C   25150.13718796  .00001848  00000-0  20728-3 0  9995
2 40071  98.3444  85.3910 0008941  79.6279 280.5943 14.88119155589189
AAUSAT CUBESAT 2
1 32788U 08021F   25139.97047148  .08158600  26426-5  14044-2 0  9997
2 32788  97.5714 139.5734 0010482 221.9933 138.0559 16.32875487930171
COSMOS-2491 (RS-46) [i]
1 39497U 13076E   25150.19877970  .00000036  00000-0  18833-3 0  9995
2 39497  82.4878  47.1256 0012281 202.8192 157.2343 12.43489022518413
COSMOS-2499 (RS-47) [i]
1 39765U 14028E   25150.12299099  .00000014  00000-0  10160-4 0  9996
2 39765  82.4476 150.9267 0231531 180.6558 179.4276 12.82891853516129
TRANSIT 5B-5
1   965U 64083D   25150.17826931  .00000080  00000-0  99829-4 0  9990
2   965  90.0600 200.2618 0039964 320.2687  98.1011 13.56966100992237
EUTELSAT 1-F4 (ECS 4)
1 18351U 87078B   25149.86709674 -.00000248  00000-0  00000+0 0  9990
2 18351  14.1022 344.8148 0010371  42.9092 148.6880  0.98690917122953
BISONSAT
1 40968U 15058E   25149.95571924  .00004455  00000-0  36700-3 0  9996
2 40968  64.7769  15.2933 0152455 197.9350 161.6351 14.91716782 59415
DTUSAT-2
1 40030U 14033W   25149.87484507  .00008210  00000-0  53564-3 0  9999
2 40030  98.0544 121.1779 0010927  95.3822 264.8651 15.08106747594789
ELEKTRO-L2
1 41105U 15074A   25149.65472387 -.00000123  00000-0  00000-0 0  9998
2 41105   5.7273  75.2518 0001577 224.0715 169.2797  1.00270433 34666
DOVE-3
1 39429U 13066P   25150.16615529  .00003078  00000-0  43178-3 0  9995
2 39429  97.7125  24.2359 0119305 183.7236 176.3097 14.73336341614766
FORTE
1 24920U 97047A   25149.75383388  .00000219  00000-0  11203-3 0  9992
2 24920  69.9515 159.9209 0019288  79.8689 280.4608 14.27704340443959
DMSP 5D-2 F15/USA-147
1 25991U 99067A   25150.21913524  .00000166  00000-0  10461-3 0  9995
2 25991  99.0390 178.0458 0010133  18.3691  61.2454 14.17374815316415
CASSIOPE-1
1 39265U 13055A   25150.13003467  .00019974 -37594-6  31844-3 0  9994
2 39265  80.9409 161.3491 0392211 246.7530 109.1948 14.97416704609816
D-STAR ONE PHOENIX
1 43188U 18014J   25149.18086274  .00004605  00000-0  27401-3 0  9997
2 43188  97.5653  52.3237 0007811 258.7972 101.2380 15.11714258400655
S-NET D
1 43186U 18014G   25149.18044431  .00004516  00000-0  26881-3 0  9996
2 43186  97.5638  52.2037 0007216 263.7433  96.2975 15.11708846400659
